{"fetched_at":"2026-07-05T17:41:41.697Z","source":"https://celestrak.org/NORAD/elements/gp.php?NAME=SENTINEL&FORMAT=JSON","constellation":"sentinel-3","records":[{"OBJECT_NAME":"SENTINEL-3A","OBJECT_ID":"2016-011A","EPOCH":"2026-07-05T04:04:32.339136","CLASSIFICATION_TYPE":"U","MEAN_MOTION":14.26737992,"ECCENTRICITY":0.00014235,"INCLINATION":98.6241,"RA_OF_ASC_NODE":253.2946,"ARG_OF_PERICENTER":93.421,"MEAN_ANOMALY":266.7134,"EPHEMERIS_TYPE":0,"NORAD_CAT_ID":41335,"ELEMENT_SET_NO":999,"REV_AT_EPOCH":54062,"BSTAR":0.000084197114,"MEAN_MOTION_DOT":0.0000016,"MEAN_MOTION_DDOT":0},{"OBJECT_NAME":"SENTINEL-3B","OBJECT_ID":"2018-039A","EPOCH":"2026-07-05T05:06:50.234688","CLASSIFICATION_TYPE":"U","MEAN_MOTION":14.26740289,"ECCENTRICITY":0.00009206,"INCLINATION":98.624,"RA_OF_ASC_NODE":253.4861,"ARG_OF_PERICENTER":117.0798,"MEAN_ANOMALY":243.0476,"EPHEMERIS_TYPE":0,"NORAD_CAT_ID":43437,"ELEMENT_SET_NO":999,"REV_AT_EPOCH":42669,"BSTAR":0.000085602827,"MEAN_MOTION_DOT":0.00000164,"MEAN_MOTION_DDOT":0}]}
